[{"COMMENT":"GENERATED VIA SPACETRACK.ORG API","ORIGINATOR":"18 SPCS","NORAD_CAT_ID":"43477","OBJECT_NAME":"GRACE-FO 2","OBJECT_TYPE":"PAYLOAD","CLASSIFICATION_TYPE":"U","INTLDES":"18047B","EPOCH":"2023-11-30 02:34:52","EPOCH_MICROSECONDS":"636224","MEAN_MOTION":"15.27462581","ECCENTRICITY":"0.0016457","INCLINATION":"88.9808","RA_OF_ASC_NODE":"326.5881","ARG_OF_PERICENTER":"113.8493","MEAN_ANOMALY":"246.4484","EPHEMERIS_TYPE":"0","ELEMENT_SET_NO":"999","REV_AT_EPOCH":"30731","BSTAR":"0.0002003","MEAN_MOTION_DOT":"0.00005429","MEAN_MOTION_DDOT":"0","FILE":"4113798","TLE_LINE0":"0 GRACE-FO 2","TLE_LINE1":"1 43477U 18047B   23334.10755366  .00005429  00000-0  20030-3 0  9991","TLE_LINE2":"2 43477  88.9808 326.5881 0016457 113.8493 246.4484 15.27462581307310","OBJECT_ID":"2018-047B","OBJECT_NUMBER":"43477","SEMIMAJOR_AXIS":"6861.538","PERIOD":"94.274","APOGEE":"494.695","PERIGEE":"472.111","DECAYED":"0"},{"COMMENT":"GENERATED VIA SPACETRACK.ORG API","ORIGINATOR":"18 SPCS","NORAD_CAT_ID":"43477","OBJECT_NAME":"GRACE-FO 2","OBJECT_TYPE":"PAYLOAD","CLASSIFICATION_TYPE":"U","INTLDES":"18047B","EPOCH":"2023-11-29 14:00:09","EPOCH_MICROSECONDS":"317088","MEAN_MOTION":"15.27456917","ECCENTRICITY":"0.0016407","INCLINATION":"88.9807","RA_OF_ASC_NODE":"326.6601","ARG_OF_PERICENTER":"115.5067","MEAN_ANOMALY":"244.7882","EPHEMERIS_TYPE":"0","ELEMENT_SET_NO":"999","REV_AT_EPOCH":"30723","BSTAR":"0.00021294","MEAN_MOTION_DOT":"0.00005768","MEAN_MOTION_DDOT":"0","FILE":"4113103","TLE_LINE0":"0 GRACE-FO 2","TLE_LINE1":"1 43477U 18047B   23333.58344117  .00005768  00000-0  21294-3 0  9999","TLE_LINE2":"2 43477  88.9807 326.6601 0016407 115.5067 244.7882 15.27456917307231","OBJECT_ID":"2018-047B","OBJECT_NUMBER":"43477","SEMIMAJOR_AXIS":"6861.555","PERIOD":"94.274","APOGEE":"494.677","PERIGEE":"472.162","DECAYED":"0"},{"COMMENT":"GENERATED VIA SPACETRACK.ORG API","ORIGINATOR":"18 SPCS","NORAD_CAT_ID":"43477","OBJECT_NAME":"GRACE-FO 2","OBJECT_TYPE":"PAYLOAD","CLASSIFICATION_TYPE":"U","INTLDES":"18047B","EPOCH":"2023-11-28 19:08:03","EPOCH_MICROSECONDS":"973344","MEAN_MOTION":"15.27447446","ECCENTRICITY":"0.0016323","INCLINATION":"88.9806","RA_OF_ASC_NODE":"326.768","ARG_OF_PERICENTER":"117.938","MEAN_ANOMALY":"242.3525","EPHEMERIS_TYPE":"0","ELEMENT_SET_NO":"999","REV_AT_EPOCH":"30711","BSTAR":"0.0002057","MEAN_MOTION_DOT":"0.00005571","MEAN_MOTION_DDOT":"0","FILE":"4112264","TLE_LINE0":"0 GRACE-FO 2","TLE_LINE1":"1 43477U 18047B   23332.79726821  .00005571  00000-0  20570-3 0  9995","TLE_LINE2":"2 43477  88.9806 326.7680 0016323 117.9380 242.3525 15.27447446307111","OBJECT_ID":"2018-047B","OBJECT_NUMBER":"43477","SEMIMAJOR_AXIS":"6861.583","PERIOD":"94.275","APOGEE":"494.648","PERIGEE":"472.248","DECAYED":"0"},{"COMMENT":"GENERATED VIA SPACETRACK.ORG API","ORIGINATOR":"18 SPCS","NORAD_CAT_ID":"43477","OBJECT_NAME":"GRACE-FO 2","OBJECT_TYPE":"PAYLOAD","CLASSIFICATION_TYPE":"U","INTLDES":"18047B","EPOCH":"2023-11-28 19:08:03","EPOCH_MICROSECONDS":"973344","MEAN_MOTION":"15.27447446","ECCENTRICITY":"0.0016323","INCLINATION":"88.9806","RA_OF_ASC_NODE":"326.768","ARG_OF_PERICENTER":"117.938","MEAN_ANOMALY":"242.3525","EPHEMERIS_TYPE":"0","ELEMENT_SET_NO":"999","REV_AT_EPOCH":"30711","BSTAR":"0.0002057","MEAN_MOTION_DOT":"0.00005571","MEAN_MOTION_DDOT":"0","FILE":"4111710","TLE_LINE0":"0 GRACE-FO 2","TLE_LINE1":"1 43477U 18047B   23332.79726821  .00005571  00000-0  20570-3 0  9995","TLE_LINE2":"2 43477  88.9806 326.7680 0016323 117.9380 242.3525 15.27447446307111","OBJECT_ID":"2018-047B","OBJECT_NUMBER":"43477","SEMIMAJOR_AXIS":"6861.583","PERIOD":"94.275","APOGEE":"494.648","PERIGEE":"472.248","DECAYED":"0"},{"COMMENT":"GENERATED VIA SPACETRACK.ORG API","ORIGINATOR":"18 SPCS","NORAD_CAT_ID":"43477","OBJECT_NAME":"GRACE-FO 2","OBJECT_TYPE":"PAYLOAD","CLASSIFICATION_TYPE":"U","INTLDES":"18047B","EPOCH":"2023-11-28 12:50:42","EPOCH_MICROSECONDS":"92160","MEAN_MOTION":"15.27444546","ECCENTRICITY":"0.0016301","INCLINATION":"88.9806","RA_OF_ASC_NODE":"326.804","ARG_OF_PERICENTER":"118.8138","MEAN_ANOMALY":"241.4751","EPHEMERIS_TYPE":"0","ELEMENT_SET_NO":"999","REV_AT_EPOCH":"30707","BSTAR":"0.00020016","MEAN_MOTION_DOT":"0.00005421","MEAN_MOTION_DDOT":"0","FILE":"4111489","TLE_LINE0":"0 GRACE-FO 2","TLE_LINE1":"1 43477U 18047B   23332.53520940  .00005421  00000-0  20016-3 0  9990","TLE_LINE2":"2 43477  88.9806 326.8040 0016301 118.8138 241.4751 15.27444546307073","OBJECT_ID":"2018-047B","OBJECT_NUMBER":"43477","SEMIMAJOR_AXIS":"6861.592","PERIOD":"94.275","APOGEE":"494.642","PERIGEE":"472.272","DECAYED":"0"},{"COMMENT":"GENERATED VIA SPACETRACK.ORG API","ORIGINATOR":"18 SPCS","NORAD_CAT_ID":"43477","OBJECT_NAME":"GRACE-FO 2","OBJECT_TYPE":"PAYLOAD","CLASSIFICATION_TYPE":"U","INTLDES":"18047B","EPOCH":"2023-11-27 22:41:37","EPOCH_MICROSECONDS":"711104","MEAN_MOTION":"15.27437863","ECCENTRICITY":"0.0016231","INCLINATION":"88.9805","RA_OF_ASC_NODE":"326.8849","ARG_OF_PERICENTER":"120.6672","MEAN_ANOMALY":"239.618","EPHEMERIS_TYPE":"0","ELEMENT_SET_NO":"999","REV_AT_EPOCH":"30698","BSTAR":"0.00019209","MEAN_MOTION_DOT":"0.00005203","MEAN_MOTION_DDOT":"0","FILE":"4110225","TLE_LINE0":"0 GRACE-FO 2","TLE_LINE1":"1 43477U 18047B   23331.94557536  .00005203  00000-0  19209-3 0  9995","TLE_LINE2":"2 43477  88.9805 326.8849 0016231 120.6672 239.6180 15.27437863306983","OBJECT_ID":"2018-047B","OBJECT_NUMBER":"43477","SEMIMAJOR_AXIS":"6861.612","PERIOD":"94.276","APOGEE":"494.614","PERIGEE":"472.340","DECAYED":"0"},{"COMMENT":"GENERATED VIA SPACETRACK.ORG API","ORIGINATOR":"18 SPCS","NORAD_CAT_ID":"43477","OBJECT_NAME":"GRACE-FO 2","OBJECT_TYPE":"PAYLOAD","CLASSIFICATION_TYPE":"U","INTLDES":"18047B","EPOCH":"2023-11-27 17:58:36","EPOCH_MICROSECONDS":"210144","MEAN_MOTION":"15.27435463","ECCENTRICITY":"0.0016217","INCLINATION":"88.9805","RA_OF_ASC_NODE":"326.9119","ARG_OF_PERICENTER":"121.3263","MEAN_ANOMALY":"238.9577","EPHEMERIS_TYPE":"0","ELEMENT_SET_NO":"999","REV_AT_EPOCH":"30695","BSTAR":"0.0001922","MEAN_MOTION_DOT":"0.00005205","MEAN_MOTION_DDOT":"0","FILE":"4109797","TLE_LINE0":"0 GRACE-FO 2","TLE_LINE1":"1 43477U 18047B   23331.74903021  .00005205  00000-0  19220-3 0  9992","TLE_LINE2":"2 43477  88.9805 326.9119 0016217 121.3263 238.9577 15.27435463306955","OBJECT_ID":"2018-047B","OBJECT_NUMBER":"43477","SEMIMAJOR_AXIS":"6861.619","PERIOD":"94.276","APOGEE":"494.611","PERIGEE":"472.356","DECAYED":"0"},{"COMMENT":"GENERATED VIA SPACETRACK.ORG API","ORIGINATOR":"18 SPCS","NORAD_CAT_ID":"43477","OBJECT_NAME":"GRACE-FO 2","OBJECT_TYPE":"PAYLOAD","CLASSIFICATION_TYPE":"U","INTLDES":"18047B","EPOCH":"2023-11-27 13:15:34","EPOCH_MICROSECONDS":"671168","MEAN_MOTION":"15.27433355","ECCENTRICITY":"0.0016195","INCLINATION":"88.9804","RA_OF_ASC_NODE":"326.9389","ARG_OF_PERICENTER":"121.9668","MEAN_ANOMALY":"238.3158","EPHEMERIS_TYPE":"0","ELEMENT_SET_NO":"999","REV_AT_EPOCH":"30692","BSTAR":"0.00018872","MEAN_MOTION_DOT":"0.00005111","MEAN_MOTION_DDOT":"0","FILE":"4109692","TLE_LINE0":"0 GRACE-FO 2","TLE_LINE1":"1 43477U 18047B   23331.55248462  .00005111  00000-0  18872-3 0  9990","TLE_LINE2":"2 43477  88.9804 326.9389 0016195 121.9668 238.3158 15.27433355306927","OBJECT_ID":"2018-047B","OBJECT_NUMBER":"43477","SEMIMAJOR_AXIS":"6861.625","PERIOD":"94.276","APOGEE":"494.603","PERIGEE":"472.378","DECAYED":"0"},{"COMMENT":"GENERATED VIA SPACETRACK.ORG API","ORIGINATOR":"18 SPCS","NORAD_CAT_ID":"43477","OBJECT_NAME":"GRACE-FO 2","OBJECT_TYPE":"PAYLOAD","CLASSIFICATION_TYPE":"U","INTLDES":"18047B","EPOCH":"2023-11-26 21:32:09","EPOCH_MICROSECONDS":"395808","MEAN_MOTION":"15.27425167","ECCENTRICITY":"0.0016104","INCLINATION":"88.9805","RA_OF_ASC_NODE":"327.0289","ARG_OF_PERICENTER":"124.0406","MEAN_ANOMALY":"236.2375","EPHEMERIS_TYPE":"0","ELEMENT_SET_NO":"999","REV_AT_EPOCH":"30682","BSTAR":"0.00017539","MEAN_MOTION_DOT":"0.00004751","MEAN_MOTION_DDOT":"0","FILE":"4108592","TLE_LINE0":"0 GRACE-FO 2","TLE_LINE1":"1 43477U 18047B   23330.89733097  .00004751  00000-0  17539-3 0  9997","TLE_LINE2":"2 43477  88.9805 327.0289 0016104 124.0406 236.2375 15.27425167306822","OBJECT_ID":"2018-047B","OBJECT_NUMBER":"43477","SEMIMAJOR_AXIS":"6861.650","PERIOD":"94.276","APOGEE":"494.565","PERIGEE":"472.465","DECAYED":"0"},{"COMMENT":"GENERATED VIA SPACETRACK.ORG API","ORIGINATOR":"18 SPCS","NORAD_CAT_ID":"43477","OBJECT_NAME":"GRACE-FO 2","OBJECT_TYPE":"PAYLOAD","CLASSIFICATION_TYPE":"U","INTLDES":"18047B","EPOCH":"2023-11-26 13:40:26","EPOCH_MICROSECONDS":"654016","MEAN_MOTION":"15.27422205","ECCENTRICITY":"0.0016063","INCLINATION":"88.9804","RA_OF_ASC_NODE":"327.0738","ARG_OF_PERICENTER":"125.1022","MEAN_ANOMALY":"235.1736","EPHEMERIS_TYPE":"0","ELEMENT_SET_NO":"999","REV_AT_EPOCH":"30677","BSTAR":"0.0001901","MEAN_MOTION_DOT":"0.00005146","MEAN_MOTION_DDOT":"0","FILE":"4107973","TLE_LINE0":"0 GRACE-FO 2","TLE_LINE1":"1 43477U 18047B   23330.56975294  .00005146  00000-0  19010-3 0  9993","TLE_LINE2":"2 43477  88.9804 327.0738 0016063 125.1022 235.1736 15.27422205306773","OBJECT_ID":"2018-047B","OBJECT_NUMBER":"43477","SEMIMAJOR_AXIS":"6861.659","PERIOD":"94.276","APOGEE":"494.546","PERIGEE":"472.502","DECAYED":"0"}]